[{"OBJECT_NAME":"SCATSAT 1","OBJECT_ID":"2016-059H","EPOCH":"2026-03-06T03:16:27.222816","MEAN_MOTION":14.79248277,"ECCENTRICITY":0.00541675,"INCLINATION":98.1312,"RA_OF_ASC_NODE":127.807,"ARG_OF_PERICENTER":219.087,"MEAN_ANOMALY":140.6423,"EPHEMERIS_TYPE":0,"CLASSIFICATION_TYPE":"U","NORAD_CAT_ID":41790,"ELEMENT_SET_NO":999,"REV_AT_EPOCH":8635,"BSTAR":0.00023616269,"MEAN_MOTION_DOT":1.741e-5,"MEAN_MOTION_DDOT":0},{"OBJECT_NAME":"GOKTURK 1A","OBJECT_ID":"2016-073A","EPOCH":"2026-03-06T07:08:54.226176","MEAN_MOTION":14.62746096,"ECCENTRICITY":0.00013655,"INCLINATION":98.1373,"RA_OF_ASC_NODE":321.5215,"ARG_OF_PERICENTER":77.2438,"MEAN_ANOMALY":282.8917,"EPHEMERIS_TYPE":0,"CLASSIFICATION_TYPE":"U","NORAD_CAT_ID":41875,"ELEMENT_SET_NO":999,"REV_AT_EPOCH":49378,"BSTAR":0.00018044483,"MEAN_MOTION_DOT":8.73e-6,"MEAN_MOTION_DDOT":0},{"OBJECT_NAME":"RESOURCESAT-2A","OBJECT_ID":"2016-074A","EPOCH":"2026-03-06T07:29:47.879808","MEAN_MOTION":14.21600018,"ECCENTRICITY":0.0002616,"INCLINATION":98.7611,"RA_OF_ASC_NODE":139.6276,"ARG_OF_PERICENTER":44.08,"MEAN_ANOMALY":316.0585,"EPHEMERIS_TYPE":0,"CLASSIFICATION_TYPE":"U","NORAD_CAT_ID":41877,"ELEMENT_SET_NO":999,"REV_AT_EPOCH":47968,"BSTAR":0.00018678264,"MEAN_MOTION_DOT":3.65e-6,"MEAN_MOTION_DDOT":0},{"OBJECT_NAME":"CARTOSAT-2D","OBJECT_ID":"2017-008A","EPOCH":"2026-03-06T06:43:16.235328","MEAN_MOTION":15.19206943,"ECCENTRICITY":0.00042591,"INCLINATION":97.4243,"RA_OF_ASC_NODE":126.4395,"ARG_OF_PERICENTER":235.936,"MEAN_ANOMALY":124.1471,"EPHEMERIS_TYPE":0,"CLASSIFICATION_TYPE":"U","NORAD_CAT_ID":41948,"ELEMENT_SET_NO":999,"REV_AT_EPOCH":50195,"BSTAR":2.9341641e-5,"MEAN_MOTION_DOT":5.5e-6,"MEAN_MOTION_DDOT":0},{"OBJECT_NAME":"SENTINEL-2B","OBJECT_ID":"2017-013A","EPOCH":"2026-03-06T06:29:25.131264","MEAN_MOTION":14.30818147,"ECCENTRICITY":0.00011031,"INCLINATION":98.5664,"RA_OF_ASC_NODE":141.5139,"ARG_OF_PERICENTER":95.5484,"MEAN_ANOMALY":264.5824,"EPHEMERIS_TYPE":0,"CLASSIFICATION_TYPE":"U","NORAD_CAT_ID":42063,"ELEMENT_SET_NO":999,"REV_AT_EPOCH":46992,"BSTAR":3.980604e-5,"MEAN_MOTION_DOT":6.1e-7,"MEAN_MOTION_DDOT":0},{"OBJECT_NAME":"CARTOSAT-2E","OBJECT_ID":"2017-036C","EPOCH":"2026-03-06T07:07:45.282432","MEAN_MOTION":15.19284075,"ECCENTRICITY":0.00027873,"INCLINATION":97.4405,"RA_OF_ASC_NODE":126.728,"ARG_OF_PERICENTER":309.9746,"MEAN_ANOMALY":50.1243,"EPHEMERIS_TYPE":0,"CLASSIFICATION_TYPE":"U","NORAD_CAT_ID":42767,"ELEMENT_SET_NO":999,"REV_AT_EPOCH":48252,"BSTAR":0.00025068518,"MEAN_MOTION_DOT":5.221e-5,"MEAN_MOTION_DDOT":0},{"OBJECT_NAME":"FORMOSAT-5","OBJECT_ID":"2017-049A","EPOCH":"2026-03-06T07:02:15.192960","MEAN_MOTION":14.50819307,"ECCENTRICITY":0.00118638,"INCLINATION":98.2317,"RA_OF_ASC_NODE":142.8745,"ARG_OF_PERICENTER":46.2494,"MEAN_ANOMALY":313.9681,"EPHEMERIS_TYPE":0,"CLASSIFICATION_TYPE":"U","NORAD_CAT_ID":42920,"ELEMENT_SET_NO":999,"REV_AT_EPOCH":45175,"BSTAR":8.8237592e-5,"MEAN_MOTION_DOT":3.04e-6,"MEAN_MOTION_DDOT":0},{"OBJECT_NAME":"SENTINEL-5P","OBJECT_ID":"2017-064A","EPOCH":"2026-03-06T07:00:13.692960","MEAN_MOTION":14.1954823,"ECCENTRICITY":0.00010965,"INCLINATION":98.7878,"RA_OF_ASC_NODE":8.1772,"ARG_OF_PERICENTER":80.8617,"MEAN_ANOMALY":279.2683,"EPHEMERIS_TYPE":0,"CLASSIFICATION_TYPE":"U","NORAD_CAT_ID":42969,"ELEMENT_SET_NO":999,"REV_AT_EPOCH":43496,"BSTAR":8.173682e-5,"MEAN_MOTION_DOT":1.28e-6,"MEAN_MOTION_DDOT":0},{"OBJECT_NAME":"SKYSAT-C11","OBJECT_ID":"2017-068A","EPOCH":"2026-03-06T07:12:11.136096","MEAN_MOTION":15.52129717,"ECCENTRICITY":7.355e-5,"INCLINATION":97.4198,"RA_OF_ASC_NODE":210.173,"ARG_OF_PERICENTER":83.232,"MEAN_ANOMALY":276.9017,"EPHEMERIS_TYPE":0,"CLASSIFICATION_TYPE":"U","NORAD_CAT_ID":42987,"ELEMENT_SET_NO":999,"REV_AT_EPOCH":46725,"BSTAR":0.00056583885,"MEAN_MOTION_DOT":0.00034196,"MEAN_MOTION_DDOT":0},{"OBJECT_NAME":"SKYSAT-C10","OBJECT_ID":"2017-068B","EPOCH":"2026-03-06T06:30:55.807200","MEAN_MOTION":15.32577709,"ECCENTRICITY":0.00010879,"INCLINATION":97.4335,"RA_OF_ASC_NODE":201.3671,"ARG_OF_PERICENTER":90.7446,"MEAN_ANOMALY":269.3921,"EPHEMERIS_TYPE":0,"CLASSIFICATION_TYPE":"U","NORAD_CAT_ID":42988,"ELEMENT_SET_NO":999,"REV_AT_EPOCH":46658,"BSTAR":0.00041480019,"MEAN_MOTION_DOT":0.00012978,"MEAN_MOTION_DDOT":0},{"OBJECT_NAME":"SKYSAT-C9","OBJECT_ID":"2017-068C","EPOCH":"2026-03-06T07:57:36.683712","MEAN_MOTION":15.38754361,"ECCENTRICITY":0.00097286,"INCLINATION":97.4262,"RA_OF_ASC_NODE":201.436,"ARG_OF_PERICENTER":143.8914,"MEAN_ANOMALY":216.299,"EPHEMERIS_TYPE":0,"CLASSIFICATION_TYPE":"U","NORAD_CAT_ID":42989,"ELEMENT_SET_NO":999,"REV_AT_EPOCH":46692,"BSTAR":0.00046056586,"MEAN_MOTION_DOT":0.00017605,"MEAN_MOTION_DDOT":0},{"OBJECT_NAME":"SKYSAT-C8","OBJECT_ID":"2017-068D","EPOCH":"2026-03-05T08:20:38.660352","MEAN_MOTION":15.34624389,"ECCENTRICITY":8.59e-5,"INCLINATION":97.4349,"RA_OF_ASC_NODE":199.8628,"ARG_OF_PERICENTER":119.9658,"MEAN_ANOMALY":240.1671,"EPHEMERIS_TYPE":0,"CLASSIFICATION_TYPE":"U","NORAD_CAT_ID":42990,"ELEMENT_SET_NO":999,"REV_AT_EPOCH":46637,"BSTAR":0.00020698,"MEAN_MOTION_DOT":6.863e-5,"MEAN_MOTION_DDOT":0},{"OBJECT_NAME":"SKYSAT-C7","OBJECT_ID":"2017-068E","EPOCH":"2026-03-06T07:34:36.778080","MEAN_MOTION":15.34611131,"ECCENTRICITY":0.00073642,"INCLINATION":97.4363,"RA_OF_ASC_NODE":201.8214,"ARG_OF_PERICENTER":113.7632,"MEAN_ANOMALY":246.4384,"EPHEMERIS_TYPE":0,"CLASSIFICATION_TYPE":"U","NORAD_CAT_ID":42991,"ELEMENT_SET_NO":999,"REV_AT_EPOCH":46658,"BSTAR":0.00044175958,"MEAN_MOTION_DOT":0.00014758,"MEAN_MOTION_DDOT":0},{"OBJECT_NAME":"SKYSAT-C6","OBJECT_ID":"2017-068F","EPOCH":"2026-03-06T07:22:17.922432","MEAN_MOTION":15.3240308,"ECCENTRICITY":0.0003636,"INCLINATION":97.4392,"RA_OF_ASC_NODE":202.1075,"ARG_OF_PERICENTER":135.6289,"MEAN_ANOMALY":224.5244,"EPHEMERIS_TYPE":0,"CLASSIFICATION_TYPE":"U","NORAD_CAT_ID":42992,"ELEMENT_SET_NO":999,"REV_AT_EPOCH":46655,"BSTAR":0.00061732804,"MEAN_MOTION_DOT":0.00019266,"MEAN_MOTION_DDOT":0},{"OBJECT_NAME":"CARTOSAT-2F","OBJECT_ID":"2018-004A","EPOCH":"2026-03-06T06:19:03.695808","MEAN_MOTION":15.19219528,"ECCENTRICITY":6.334e-5,"INCLINATION":97.4164,"RA_OF_ASC_NODE":126.4849,"ARG_OF_PERICENTER":230.4999,"MEAN_ANOMALY":129.618,"EPHEMERIS_TYPE":0,"CLASSIFICATION_TYPE":"U","NORAD_CAT_ID":43111,"ELEMENT_SET_NO":999,"REV_AT_EPOCH":45170,"BSTAR":0.00017347048,"MEAN_MOTION_DOT":3.585e-5,"MEAN_MOTION_DDOT":0},{"OBJECT_NAME":"GAOFEN-1 02","OBJECT_ID":"2018-031A","EPOCH":"2026-03-06T06:52:59.323008","MEAN_MOTION":14.76433735,"ECCENTRICITY":0.00027374,"INCLINATION":98.0652,"RA_OF_ASC_NODE":128.044,"ARG_OF_PERICENTER":1.7947,"MEAN_ANOMALY":358.3272,"EPHEMERIS_TYPE":0,"CLASSIFICATION_TYPE":"U","NORAD_CAT_ID":43259,"ELEMENT_SET_NO":999,"REV_AT_EPOCH":42751,"BSTAR":0.0002236464,"MEAN_MOTION_DOT":1.504e-5,"MEAN_MOTION_DDOT":0},{"OBJECT_NAME":"GAOFEN-1 03","OBJECT_ID":"2018-031B","EPOCH":"2026-03-06T07:59:05.849376","MEAN_MOTION":14.76469385,"ECCENTRICITY":0.00038623,"INCLINATION":98.0641,"RA_OF_ASC_NODE":127.9586,"ARG_OF_PERICENTER":60.1275,"MEAN_ANOMALY":300.0318,"EPHEMERIS_TYPE":0,"CLASSIFICATION_TYPE":"U","NORAD_CAT_ID":43260,"ELEMENT_SET_NO":999,"REV_AT_EPOCH":42751,"BSTAR":0.00015374443,"MEAN_MOTION_DOT":1.018e-5,"MEAN_MOTION_DDOT":0}]
