SCATSAT 1               
1 41790U 16059H   26065.13642619  .00001741  00000+0  23616-3 0  9996
2 41790  98.1312 127.8070 0054167 219.0870 140.6423 14.79248277 86355
GOKTURK 1A              
1 41875U 16073A   26065.29784984  .00000873  00000+0  18044-3 0  9999
2 41875  98.1373 321.5215 0001365  77.2438 282.8917 14.62746096493786
RESOURCESAT-2A          
1 41877U 16074A   26065.31235972  .00000365  00000+0  18678-3 0  9992
2 41877  98.7611 139.6276 0002616  44.0800 316.0585 14.21600018479681
CARTOSAT-2D             
1 41948U 17008A   26065.28004902  .00000550  00000+0  29342-4 0  9999
2 41948  97.4243 126.4395 0004259 235.9360 124.1471 15.19206943501955
SENTINEL-2B             
1 42063U 17013A   26065.27042976  .00000061  00000+0  39806-4 0  9999
2 42063  98.5664 141.5139 0001103  95.5484 264.5824 14.30818147469927
CARTOSAT-2E             
1 42767U 17036C   26065.29705188  .00005221  00000+0  25069-3 0  9996
2 42767  97.4405 126.7280 0002787 309.9746  50.1243 15.19284075482523
FORMOSAT-5              
1 42920U 17049A   26065.29323140  .00000304  00000+0  88238-4 0  9990
2 42920  98.2317 142.8745 0011863  46.2494 313.9681 14.50819307451759
SENTINEL-5P             
1 42969U 17064A   26065.29182515  .00000128  00000+0  81737-4 0  9990
2 42969  98.7878   8.1772 0001096  80.8617 279.2683 14.19548230434960
SKYSAT-C11              
1 42987U 17068A   26065.30012889  .00034196  00000+0  56584-3 0  9995
2 42987  97.4198 210.1730 0000735  83.2320 276.9017 15.52129717467253
SKYSAT-C10              
1 42988U 17068B   26065.27147925  .00012978  00000+0  41480-3 0  9995
2 42988  97.4335 201.3671 0001087  90.7446 269.3921 15.32577709466587
SKYSAT-C9               
1 42989U 17068C   26065.33167458  .00017605  00000+0  46057-3 0  9993
2 42989  97.4262 201.4360 0009728 143.8914 216.2990 15.38754361466925
SKYSAT-C8               
1 42990U 17068D   26064.34766968  .00006863  00000+0  20698-3 0  9993
2 42990  97.4349 199.8628 0000859 119.9658 240.1671 15.34624389466378
SKYSAT-C7               
1 42991U 17068E   26065.31570345  .00014758  00000+0  44176-3 0  9993
2 42991  97.4363 201.8214 0007364 113.7632 246.4384 15.34611131466586
SKYSAT-C6               
1 42992U 17068F   26065.30715188  .00019266  00000+0  61733-3 0  9996
2 42992  97.4392 202.1075 0003636 135.6289 224.5244 15.32403080466556
CARTOSAT-2F             
1 43111U 18004A   26065.26323722  .00003585  00000+0  17347-3 0  9994
2 43111  97.4164 126.4849 0000633 230.4999 129.6180 15.19219528451702
GAOFEN-1 02             
1 43259U 18031A   26065.28679772  .00001504  00000+0  22365-3 0  9993
2 43259  98.0652 128.0440 0002737   1.7947 358.3272 14.76433735427513
GAOFEN-1 03             
1 43260U 18031B   26065.33270659  .00001018  00000+0  15374-3 0  9994
2 43260  98.0641 127.9586 0003862  60.1275 300.0318 14.76469385427510
